$$SOE
2460728.500000000, A.D. 2025-Feb-22 00:00:00.0000, 9.555890424532260E+07, -4.515646448830234E+08, 6.307329061069594E+07,
2460735.500000000, A.D. 2025-Mar-01 00:00:00.0000, 1.057408022821406E+08, -4.501838733087077E+08, 6.164941940450610E+07,
2460742.500000000, A.D. 2025-Mar-08 00:00:00.0000, 1.158721565091939E+08, -4.485879389824936E+08, 6.019607287825574E+07,
2460749.500000000, A.D. 2025-Mar-15 00:00:00.0000, 1.259483685174376E+08, -4.467785359648013E+08, 5.871407076428050E+07,
2460756.500000000, A.D. 2025-Mar-22 00:00:00.0000, 1.359649077949319E+08, -4.447574534864636E+08, 5.720424094284859E+07,
2460763.500000000, A.D. 2025-Mar-29 00:00:00.0000, 1.459173126697713E+08, -4.425265749872039E+08, 5.566741870508169E+07,
2460770.500000000, A.D. 2025-Apr-05 00:00:00.0000, 1.558011928269518E+08, -4.400878762557064E+08, 5.410444594522025E+07,
2460777.500000000, A.D. 2025-Apr-12 00:00:00.0000, 1.656122314754087E+08, -4.374434225729278E+08, 5.251617046792874E+07,
2460784.500000000, A.D. 2025-Apr-19 00:00:00.0000, 1.753461869802067E+08, -4.345953657449260E+08, 5.090344535615462E+07,
2460791.500000000, A.D. 2025-Apr-26 00:00:00.0000, 1.849988942339190E+08, -4.315459412327731E+08, 4.926712835831968E+07,
2460798.500000000, A.D. 2025-May-03 00:00:00.0000, 1.945662658833599E+08, -4.282974653646610E+08, 4.760808128623211E+07,
2460805.500000000, A.D. 2025-May-10 00:00:00.0000, 2.040442934427944E+08, -4.248523326254935E+08, 4.592716942198123E+07,
2460812.500000000, A.D. 2025-May-17 00:00:00.0000, 2.134290483330629E+08, -4.212130130686283E+08, 4.422526092721693E+07,
2460819.500000000, A.D. 2025-May-24 00:00:00.0000, 2.227166830234803E+08, -4.173820499078005E+08, 4.250322623459814E+07,
2460826.500000000, A.D. 2025-May-31 00:00:00.0000, 2.319034326971362E+08, -4.133620569819868E+08, 4.076193740877606E+07,
2460833.500000000, A.D. 2025-Jun-07 00:00:00.0000, 2.409856170409935E+08, -4.091557148918918E+08, 3.900226761232246E+07,
2460840.500000000, A.D. 2025-Jun-14 00:00:00.0000, 2.499596397980835E+08, -4.047657664770264E+08, 3.722509083881013E+07,
2460847.500000000, A.D. 2025-Jun-21 00:00:00.0000, 2.588219873011738E+08, -4.001950149051250E+08, 3.543128153365782E+07,
2460854.500000000, A.D. 2025-Jun-28 00:00:00.0000, 2.675692291206882E+08, -3.954463226102276E+08, 3.362171395996815E+07,
2460861.500000000, A.D. 2025-Jul-05 00:00:00.0000, 2.761980193154134E+08, -3.905226089261361E+08, 3.179726162515897E+07,
2460868.500000000, A.D. 2025-Jul-12 00:00:00.0000, 2.847050970993064E+08, -3.854268472245195E+08, 2.995879681230555E+07,
2460875.500000000, A.D. 2025-Jul-19 00:00:00.0000, 2.930872871172191E+08, -3.801620621362034E+08, 2.810719015207858E+07,
2460882.500000000, A.D. 2025-Jul-26 00:00:00.0000, 3.013414995420576E+08, -3.747313269147797E+08, 2.624331021144280E+07,
2460889.500000000, A.D. 2025-Aug-02 00:00:00.0000, 3.094647300610402E+08, -3.691377609224769E+08, 2.436802309476797E+07,
2460896.500000000, A.D. 2025-Aug-09 00:00:00.0000, 3.174540597767397E+08, -3.633845272535535E+08, 2.248219205380486E+07,
2460903.500000000, A.D. 2025-Aug-16 00:00:00.0000, 3.253066551024700E+08, -3.574748305582643E+08, 2.058667709409525E+07,
2460910.500000000, A.D. 2025-Aug-23 00:00:00.0000, 3.330197679481241E+08, -3.514119150505340E+08, 1.868233455226725E+07,
2460917.500000000, A.D. 2025-Aug-30 00:00:00.0000, 3.405907365298119E+08, -3.451990619857720E+08, 1.677001667260046E+07,
2460924.500000000, A.D. 2025-Sep-06 00:00:00.0000, 3.480169853894710E+08, -3.388395856103086E+08, 1.485057139498588E+07,
2460931.500000000, A.D. 2025-Sep-13 00:00:00.0000, 3.552960229565715E+08, -3.323368300668014E+08, 1.292484230466406E+07,
2460938.500000000, A.D. 2025-Sep-20 00:00:00.0000, 3.624254399273926E+08, -3.256941688999531E+08, 1.099366830893327E+07,
2460945.500000000, A.D. 2025-Sep-27 00:00:00.0000, 3.694029095235834E+08, -3.189150040508085E+08, 9.057883197916210E+06,
2460952.500000000, A.D. 2025-Oct-04 00:00:00.0000, 3.762261876167197E+08, -3.120027638009859E+08, 7.118315318377033E+06,
2460959.500000000, A.D. 2025-Oct-11 00:00:00.0000, 3.828931123481106E+08, -3.049609006102673E+08, 5.175787317626268E+06,
2460966.500000000, A.D. 2025-Oct-18 00:00:00.0000, 3.894016035301665E+08, -2.977928891219286E+08, 3.231115908777639E+06,
2460973.500000000, A.D. 2025-Oct-25 00:00:00.0000, 3.957496619714469E+08, -2.905022243244753E+08, 1.285111645082891E+06,
2460980.500000000, A.D. 2025-Nov-01 00:00:00.0000, 4.019353687672917E+08, -2.830924198538187E+08, -6.614212994577289E+05,
2460987.500000000, A.D. 2025-Nov-08 00:00:00.0000, 4.079568845927594E+08, -2.755670064666381E+08, -2.607685349479467E+06,
2460994.500000000, A.D. 2025-Nov-15 00:00:00.0000, 4.138124491475772E+08, -2.679295307423552E+08, -4.552889766583458E+06,
2461001.500000000, A.D. 2025-Nov-22 00:00:00.0000, 4.195003811579033E+08, -2.601835537919743E+08, -6.496250926143184E+06,
2461008.500000000, A.D. 2025-Nov-29 00:00:00.0000, 4.250190787848393E+08, -2.523326488375521E+08, -8.436992526241124E+06,
2461015.500000000, A.D. 2025-Dec-06 00:00:00.0000, 4.303670181655384E+08, -2.443803977983417E+08, -1.037434553140646E+07,
2461022.500000000, A.D. 2025-Dec-13 00:00:00.0000, 4.355427505221226E+08, -2.363303902537140E+08, -1.230754816694376E+07,
2461029.500000000, A.D. 2025-Dec-20 00:00:00.0000, 4.405449013325446E+08, -2.281862237579056E+08, -1.423584620119824E+07,
2461036.500000000, A.D. 2025-Dec-27 00:00:00.0000, 4.453721704917920E+08, -2.199515029134667E+08, -1.615849320590195E+07,
2461043.500000000, A.D. 2026-Jan-03 00:00:00.0000, 4.500233320067971E+08, -2.116298378177340E+08, -1.807475071140048E+07,
2461050.500000000, A.D. 2026-Jan-10 00:00:00.0000, 4.544972333371028E+08, -2.032248425599756E+08, -1.998388832262820E+07,
2461057.500000000, A.D. 2026-Jan-17 00:00:00.0000, 4.587927946159047E+08, -1.947401338593715E+08, -2.188518382495385E+07,
2461064.500000000, A.D. 2026-Jan-24 00:00:00.0000, 4.629090078312916E+08, -1.861793298197724E+08, -2.377792328548326E+07,
2461071.500000000, A.D. 2026-Jan-31 00:00:00.0000, 4.668449359926041E+08, -1.775460488073642E+08, -2.566140115286414E+07,
2461078.500000000, A.D. 2026-Feb-07 00:00:00.0000, 4.705997123441060E+08, -1.688439085072629E+08, -2.753492036618791E+07,
2461085.500000000, A.D. 2026-Feb-14 00:00:00.0000, 4.741725398787073E+08, -1.600765251724076E+08, -2.939779249766062E+07,
2461092.500000000, A.D. 2026-Feb-21 00:00:00.0000, 4.775626915389684E+08, -1.512475124846047E+08, -3.124933791752384E+07,
2461099.500000000, A.D. 2026-Feb-28 00:00:00.0000, 4.807695100221673E+08, -1.423604788709714E+08, -3.308888578751577E+07,
2461106.500000000, A.D. 2026-Mar-07 00:00:00.0000, 4.837924051339082E+08, -1.334190252242425E+08, -3.491577385363463E+07,
2461113.500000000, A.D. 2026-Mar-14 00:00:00.0000, 4.866308514676837E+08, -1.244267453589450E+08, -3.672934848373524E+07,
2461120.500000000, A.D. 2026-Mar-21 00:00:00.0000, 4.892843881944245E+08, -1.153872263041490E+08, -3.852896487688126E+07,
2461127.500000000, A.D. 2026-Mar-28 00:00:00.0000, 4.917526189544832E+08, -1.063040474032493E+08, -4.031398717630266E+07,
2461134.500000000, A.D. 2026-Apr-04 00:00:00.0000, 4.940352112498424E+08, -9.718077918601820E+07, -4.208378850970178E+07,
2461141.500000000, A.D. 2026-Apr-11 00:00:00.0000, 4.961318956113147E+08, -8.802098237230174E+07, -4.383775101158608E+07,
2461148.500000000, A.D. 2026-Apr-18 00:00:00.0000, 4.980424647006671E+08, -7.882820701314560E+07, -4.557526584286933E+07,
2461155.500000000, A.D. 2026-Apr-25 00:00:00.0000, 4.997667723942591E+08, -6.960599175354229E+07, -4.729573321080604E+07,
2461162.500000000, A.D. 2026-May-02 00:00:00.0000, 5.013047328798339E+08, -6.035786324531335E+07, -4.899856239457100E+07,
2461169.500000000, A.D. 2026-May-09 00:00:00.0000, 5.026563198919248E+08, -5.108733577540031E+07, -5.068317179342835E+07,
2461176.500000000, A.D. 2026-May-16 00:00:00.0000, 5.038215664640829E+08, -4.179791097021894E+07, -5.234898902092630E+07,
2461183.500000000, A.D. 2026-May-23 00:00:00.0000, 5.048005652497488E+08, -3.249307655193922E+07, -5.399545096633695E+07,
2461190.500000000, A.D. 2026-May-30 00:00:00.0000, 5.055934673348591E+08, -2.317630382514949E+07, -5.562200360679388E+07,
2461197.500000000, A.D. 2026-Jun-06 00:00:00.0000, 5.062004792270091E+08, -1.385104716701426E+07, -5.722810180906011E+07,
2461204.500000000, A.D. 2026-Jun-13 00:00:00.0000, 5.066218616869529E+08, -4.520745321765423E+06, -5.881320944129022E+07,
2461211.500000000, A.D. 2026-Jun-20 00:00:00.0000, 5.068579299007714E+08, 4.811178427981175E+06, -6.037679950997329E+07,
2461218.500000000, A.D. 2026-Jun-27 00:00:00.0000, 5.069090532947577E+08, 1.414131687466351E+07, -6.191835419447018E+07,
2461225.500000000, A.D. 2026-Jul-04 00:00:00.0000, 5.067756549935066E+08, 2.346627951018317E+07, -6.343736484295666E+07,
2461232.500000000, A.D. 2026-Jul-11 00:00:00.0000, 5.064582111755598E+08, 3.278269303041346E+07, -6.493333196432916E+07,
2461239.500000000, A.D. 2026-Jul-18 00:00:00.0000, 5.059572504196326E+08, 4.208720174660762E+07, -6.640576522293852E+07,
2461246.500000000, A.D. 2026-Jul-25 00:00:00.0000, 5.052733530661956E+08, 5.137646790752186E+07, -6.785418343860838E+07,
2461253.500000000, A.D. 2026-Aug-01 00:00:00.0000, 5.044071506429102E+08, 6.064717188517016E+07, -6.927811460070831E+07,
2461260.500000000, A.D. 2026-Aug-08 00:00:00.0000, 5.033593255690773E+08, 6.989601218913275E+07, -7.067709591931197E+07,
2461267.500000000, A.D. 2026-Aug-15 00:00:00.0000, 5.021306115536777E+08, 7.911970576049027E+07, -7.205067391491923E+07,
2461274.500000000, A.D. 2026-Aug-22 00:00:00.0000, 5.007217939250299E+08, 8.831498976823282E+07, -7.339840437714191E+07,
2461281.500000000, A.D. 2026-Aug-29 00:00:00.0000, 4.991337076039163E+08, 9.747862353760600E+07, -7.471985209489013E+07,
2461288.500000000, A.D. 2026-Sep-05 00:00:00.0000, 4.973672348554836E+08, 1.066073877428906E+08, -7.601459078871962E+07,
2461295.500000000, A.D. 2026-Sep-12 00:00:00.0000, 4.954233052743711E+08, 1.156980833603950E+08, -7.728220326670788E+07,
$$EOE